ROBUSTA 1F (MTCUBE-2)
1 53109U 22080E   26181.72466670 -.00000003  00000-0  00000-0 0  9990
2 53109  70.1437 293.5372 0008959 286.6703  73.2973  6.42583253 92938
BLUEWALKER-3
1 53807U 22111AL  26180.78366297  .00006618  00000-0  18214-3 0  9995
2 53807  53.2300 334.8282 0005308 202.6401 157.4371 15.38427065212148
ELEKTRO-L4
1 55506U 23016A   26181.76497730 -.00000048  00000-0  00000-0 0  9997
2 55506   0.0899 142.4785 0001036  39.9122 177.6038  1.00271697 12475
SHARJAHSAT-1
1 55104U 23001CZ  26182.58017319  .00023669  00000-0  42853-3 0  9995
2 55104  97.3169 251.5498 0006060  62.7821 297.4048 15.49635603194723
METEOR M2-3
1 57166U 23091A   26182.64276144  .00000014  00000-0  24800-4 0  9996
2 57166  98.6075 237.3249 0004980 120.6691 239.4979 14.24048017156576
RESHUCUBE-2 (RS37S)
1 57168U 23091C   26182.64872300  .00010783  00000-0  41126-3 0  9997
2 57168  97.5017 245.0388 0012267  61.8722 298.3754 15.26792566166462
RASSVET 1-1
1 57169U 23091D   26182.62858510  .00010377  00000-0  42519-3 0  9999
2 57169  97.5103 244.1985 0011147  58.7194 301.5133 15.24416986166360
RASSVET 1-2
1 57170U 23091E   26182.62873985  .00010174  00000-0  41709-3 0  9999
2 57170  97.5109 244.2773 0009887  51.8842 308.3285 15.24416258166361
RASSVET 1-3
1 57171U 23091F   26182.62836007  .00010569  00000-0  43282-3 0  9990
2 57171  97.5104 244.2268 0012111  67.5266 292.7253 15.24418677166362
UMKA-1 (RS40S)
1 57172U 23091G   26182.63411239  .00007429  00000-0  33741-3 0  9998
2 57172  97.5042 241.2764 0014099  72.9869 287.2910 15.20985530166203
SATURN (RS43S)
1 57174U 23091J   26182.59673044  .00003960  00000-0  22100-3 0  9992
2 57174  97.5045 235.4879 0014908  98.2857 262.0065 15.14028667165817
CUBEBEL-2 (EU11S)
1 57175U 23091K   26182.57855063  .00016738  00000-0  58604-3 0  9999
2 57175  97.5044 245.9264 0010774  70.7525 289.4880 15.29517849166501
SITRO-AIS-5 (ANOKHIN)
1 57176U 23091L   26182.59282452  .00014868  00000-0  51650-3 0  9994
2 57176  97.5053 246.6315 0012037  58.3318 301.9094 15.29786509166545
ZORKIY-2M
1 57177U 23091M   26182.61959140  .00008197  00000-0  37070-3 0  9991
2 57177  97.5083 241.5399 0014554  70.4305 289.8500 15.21093587166198
CUBESX-HSE-3 (RS42S)
1 57178U 23091N   26182.61451534  .00015937  00000-0  52378-3 0  9994
2 57178  97.5086 248.3866 0011105  49.0176 311.2024 15.31578087166637
PHI-DEMO
1 57181U 23091R   26182.56405533  .00004376  00000-0  23991-3 0  9994
2 57181  97.5056 236.3236 0016691  88.8886 271.4258 15.14589470165869
MONITOR-3 (RS58S)
1 57180U 23091Q   26182.60566075  .00012667  00000-0  46333-3 0  9994
2 57180  97.5076 246.1593 0012346  55.4883 304.7520 15.28131419166498
NORBY-2
1 57179U 23091P   26182.60199492  .00004447  00000-0  23034-3 0  9997
2 57179  97.5084 238.4494 0016352  77.7670 282.5393 15.16604209165973
MONITOR-4 (RS57S)
1 57182U 23091S   26182.64939628  .00013244  00000-0  48297-3 0  9991
2 57182  97.5071 246.1754 0012359  55.7160 304.5248 15.28218848166508
MONITOR-2 (RS39S)
1 57184U 23091U   26182.60776000  .00005490  00000-0  26480-3 0  9996
2 57184  97.5063 240.7979 0012499  67.3185 292.9369 15.19044384166147
SVYATOBOR-1 (RS60S)
1 57187U 23091X   26182.60956925  .00010559  00000-0  40223-3 0  9998
2 57187  97.5083 246.5078 0010113  50.3468 309.8661 15.26859049166517
VIZARD-METEO (RS38S)
1 57189U 23091Z   26182.60782396  .00020186  00000-0  56812-3 0  9997
2 57189  97.5087 252.3856 0007014  31.3952 328.7709 15.36484047166904
SITRO-AIS-6 (CHIRKIN)
1 57192U 23091AC  26182.60523829  .00011958  00000-0  46373-3 0  9993
2 57192  97.5060 245.6860 0012470  61.5967 298.6526 15.26208667166488
SITRO-AIS-8 (SHCHUKIN)
1 57193U 23091AD  26182.64970710  .00018041  00000-0  57516-3 0  9994
2 57193  97.5050 248.3370 0010894  54.3476 305.8778 15.32529593166668
SITRO-AIS-7 (SHEFFER)
1 57194U 23091AE  26182.61136127  .00011359  00000-0  44491-3 0  9991
2 57194  97.5057 245.5097 0012408  62.6841 297.5659 15.25889939166471
AVION KALUGA 650 (RS24S)
1 57195U 23091AF  26182.57526293  .00006851  00000-0  31604-3 0  9997
2 57195  97.5081 242.0941 0011584  65.8655 294.3790 15.20505437166217
SITRO-AIS-10 (KATYS)
1 57199U 23091AK  26182.61975829  .00024313  00000-0  62705-3 0  9998
2 57199  97.5076 253.5112 0006187  34.2677 325.8966 15.39155744166980
SITRO-AIS-9 (BURDAEV)
1 57201U 23091AM  26182.58577867  .00022467  00000-0  58927-3 0  9997
2 57201  97.5075 253.1950 0006452  34.3388 325.8273 15.38652445166962
UTMN-2 (RS27S)
1 57203U 23091AP  26182.62427495  .00015433  00000-0  49487-3 0  9991
2 57203  97.5081 250.0478 0008191  38.8521 321.3308 15.32403837166752
SITRO-AIS-12 (FARTUSHNY)
1 57204U 23091AQ  26182.63868146  .00023281  00000-0  60471-3 0  9991
2 57204  97.5087 253.7255 0005929  28.6080 331.5489 15.38948677166996
AHMAT-1 (RS41S)
1 57206U 23091AS  26182.63808120  .00110468  00000-0  10795-2 0  9996
2 57206  97.5033 263.3915 0001971 289.0520  71.0526 15.65812620167654
SITRO-AIS-11 (SMIRENNY)
1 57208U 23091AU  26182.64806816  .00022741  00000-0  58251-3 0  9995
2 57208  97.5086 253.9909 0005808  28.0877 332.0681 15.39381742167010
KUZGTU-1 (RS47S)
1 57217U 23091AV  26182.61852076  .00014541  00000-0  49904-3 0  9995
2 57217  97.5057 247.2476 0011482  52.6345 307.5940 15.30192284166589
METEOR M2-4
1 59051U 24039A   26182.60354354  .00000006  00000-0  22175-4 0  9994
2 59051  98.7018 141.7208 0007995 122.7148 237.4802 14.22430940121316
PARS-1
1 59065U 24039Q   26182.62003012  .00013518  00000-0  27801-3 0  9995
2 59065  97.4828 163.9973 0011170  69.1545 291.0899 15.46027523130875
SITRO-AIS-25
1 59066U 24039R   26182.64668281  .00003133  00000-0  24623-3 0  9994
2 59066  95.3899 245.0288 0142324 277.5381  80.9696 14.93581005126888
SITRO-AIS-26
1 59067U 24039S   26182.65003733  .00003048  00000-0  24078-3 0  9990
2 59067  95.3901 244.9259 0142649 278.1412  80.3654 14.93375045126873
SITRO-AIS-27
1 59068U 24039T   26182.61621372  .00002233  00000-0  17562-3 0  9997
2 59068  95.3906 245.1814 0141767 276.8373  81.6741 14.93797545126896
SITRO-AIS-28
1 59071U 24039U   26182.66032420  .00003183  00000-0  24893-3 0  9996
2 59071  95.3906 245.2595 0141536 276.5055  82.0074 14.93831959126909
SONATE-2
1 59112U 24043Q   26181.87231082  .00046267  00000-0  57664-3 0  9996
2 59112  97.5541 333.1180 0007194 151.0816 209.0840 15.59751983130025
HORS-1
1 57188U 23091Y   26182.59407738  .00011545  00000-0  43807-3 0  9997
2 57188  97.5059 246.2527 0009558  50.4917 309.7165 15.26972153166518
HORS-2
1 57196U 23091AG  26182.59851653  .00016209  00000-0  52197-3 0  9999
2 57196  97.5083 249.8273 0008289  43.2845 316.9047 15.32255203166731
ZORKIY-2M 6
1 59774U 24092B   26182.56875264  .00012524  00000-0  44672-3 0  9991
2 59774  97.6512 312.0721 0009798 128.8666 231.3449 15.28991786117731
ZORKIY-2M 4
1 59775U 24092C   26182.60801100  .00012008  00000-0  41929-3 0  9994
2 59775  97.6657 314.0050 0009842 130.7689 229.4406 15.29700944117787
SITRO-AIS-53
1 59776U 24092D   26181.82851588  .00022479  00000-0  61251-3 0  9996
2 59776  97.6593 315.4736 0007783 104.2324 255.9785 15.37467030117843
SITRO-AIS-54
1 59777U 24092E   26182.29942789  .00025521  00000-0  69612-3 0  9993
2 59777  97.6595 315.9193 0007866 102.7751 257.4372 15.37407076117918
SITRO-AIS-56
1 59778U 24092F   26181.81300761  .00022904  00000-0  61026-3 0  9992
2 59778  97.6587 315.7518 0008054 103.8115 256.4026 15.38153739117869
RASSVET 1-4
1 59779U 24092G   26182.62014638  .00000165  00000-0  78233-4 0  9992
2 59779  98.6719 301.6466 0012347 160.8639 199.3011 14.31850827110965
RASSVET 1-5
1 59780U 24092H   26182.62004522  .00000176  00000-0  82201-4 0  9997
2 59780  98.6720 301.6390 0012691 162.3844 197.7782 14.31852184110967
RASSVET 1-6
1 59781U 24092J   26182.61858887  .00000180  00000-0  83798-4 0  9995
2 59781  98.6718 301.6430 0012576 162.5551 197.6067 14.31852906110966
SITRO-AIS-55
1 59809U 24092K   26182.29181979  .00023667  00000-0  65108-3 0  9990
2 59809  97.6589 315.7134 0007981 102.5740 257.6397 15.37156921117407
MESAT-1
1 60209U 24125G   26182.50246145  .00068143  00000-0  69468-3 0  9995
2 60209  97.2263  40.3256 0010859 155.1491 205.0294 15.64819211111808
ISTSAT-1
1 60238U 24128D   26182.40684524  .00007262  00000-0  42939-3 0  9995
2 60238  61.9869 155.8475 0036422 133.8931 226.5182 15.11776560108611
IONOSFERA-M 01
1 61735U 24199A   26182.61059485  .00000051  00000-0  42452-4 0  9991
2 61735  98.7154  55.6294 0002202  91.2572 268.8858 14.22756917129754
IONOSFERA-M 02
1 61736U 24199B   26182.64485522  .00000072  00000-0  51663-4 0  9997
2 61736  98.7153  55.5738 0000438  49.3396 310.7820 14.22760295132881
SITRO-AIS-16
1 61737U 24199C   26182.58888407  .00002380  00000-0  20776-3 0  9994
2 61737  97.3230  21.0188 0007523  29.4488 330.7158 14.97668460133973
SITRO-AIS-15
1 61738U 24199D   26182.63978887  .00003607  00000-0  31240-3 0  9994
2 61738  97.3231  21.1047 0007282  33.5864 326.5819 14.97685526133986
SITRO-AIS-21
1 61739U 24199E   26182.59636019  .00002110  00000-0  19652-3 0  9999
2 61739  97.3241  19.4382 0013023  21.1471 339.0286 14.95197324133908
SITRO-AIS-22
1 61740U 24199F   26182.61834107  .00002917  00000-0  26457-3 0  9998
2 61740  97.3235  19.7060 0012892  21.1558 339.0194 14.95970772134071
SITRO-AIS-24
1 61741U 24199G   26182.60110153  .00002487  00000-0  22491-3 0  9992
2 61741  97.3237  19.7388 0012820  21.0492 339.1255 14.96218553134043
SITRO-AIS-23
1 61742U 24199H   26182.60547733  .00002630  00000-0  23885-3 0  9999
2 61742  97.3234  19.7241 0012748  21.1472 339.0275 14.95996817133929
SITRO-AIS-13
1 61743U 24199J   26182.62596376  .00003347  00000-0  28829-3 0  9998
2 61743  97.3213  21.2585 0006725  33.5309 326.6339 14.97947953134158
CSTP-2.11
1 61744U 24199K   26182.61484678  .00031939  00000-0  51699-3 0  9998
2 61744  97.2929  58.0549 0006872 206.0232 154.0677 15.52731633136603
